STARLINK-37587          
1 69837U 26154U   26196.83335647 -.01835362  00000+0 -92190-2 0  9996
2 69837  53.1586 289.6046 0001259  64.0704  44.7092 15.83810902  2742
STARLINK-37590          
1 69838U 26154V   26196.83335647 -.01835984  00000+0 -91673-2 0  9992
2 69838  53.1584 289.5962 0001346  62.4728  50.2380 15.83934591  2611
STARLINK-37589          
1 69839U 26154W   26196.83335647 -.01838986  00000+0 -91392-2 0  9996
2 69839  53.1589 289.5877 0001021  70.1596  46.5359 15.84040767  2743
STARLINK-37487          
1 69840U 26154X   26196.83335647 -.01737020  84039-3 -50530-2 0  9992
2 69840  53.1569 289.2358 0000748  68.5092 216.8488 15.92331116  2746
STARLINK-37433          
1 69841U 26154Y   26196.83335647 -.02374372  15209-2 -66948-2 0  9993
2 69841  53.1569 289.2204 0000798  57.2730 235.4382 15.93003556  2875
STARLINK-37588          
1 69842U 26154Z   26196.83335647 -.01776402  87484-3 -52015-2 0  9998
2 69842  53.1568 289.2092 0000664  66.4968 231.5901 15.92211157  2777
STARLINK-37579          
1 69843U 26154AA  26196.83335647 -.01846068  93797-3 -54499-2 0  9997
2 69843  53.1567 289.1913 0000754  56.4758 250.0789 15.92063512  2774
STARLINK-37584          
1 69844U 26154AB  26196.83335647 -.01865051  95577-3 -55113-2 0  9993
2 69844  53.1569 289.1798 0000754  62.0111 249.9652 15.92047527  2778
STARLINK-37606          
1 69845U 26154AC  26196.83335647 -.01892723  98165-3 -56118-2 0  9992
2 69845  53.1565 289.1663 0000798  62.2252 256.1185 15.91986908  2777
STARLINK-37603          
1 69846U 26154AD  26196.83335647 -.01941656  10282-2 -57917-2 0  9994
2 69846  53.1567 289.1505 0000876  67.3892 258.4152 15.91877057  2771
STARLINK-37595          
1 69847U 26154AE  26196.83335647 -.01953986  10402-2 -58350-2 0  9990
2 69847  53.1563 289.1389 0000743  60.8918 270.3035 15.91857464  2771
QIANFAN-219             
1 69848U 26155A   26196.78388897 -.01501209  00000+0 -75112+0 0  9990
2 69848  89.0062  60.8794 0028450 230.0128 129.8564 14.20138558  1464
QIANFAN-220             
1 69849U 26155B   26196.58021778 -.01896186  00000+0 -10051+1 0  9994
2 69849  89.0059  60.9044 0035903 226.8697 132.9488 14.17198263  1437
QIANFAN-221             
1 69850U 26155C   26196.78271025 -.01707725  00000+0 -83588+0 0  9994
2 69850  89.0061  60.8793 0028776 223.8123 136.0785 14.21794849  1468
QIANFAN-222             
1 69851U 26155D   26196.79153512  .00000127  00000+0  50634-4 0  9996
2 69851  89.0066  60.8804 0029342 221.6968 138.1987 14.22184579  1461
QIANFAN-223             
1 69852U 26155E   26196.78836956 -.01999050  00000+0 -10354+1 0  9992
2 69852  89.0056  60.8800 0032872 229.1788 130.6550 14.18697234  1467
QIANFAN-224             
1 69853U 26155F   26196.78831176  .00000191  00000+0  77109-4 0  9993
2 69853  89.0059  60.8792 0029962 221.2043 138.6888 14.23567919  1468
QIANFAN-225             
1 69854U 26155G   26196.57428473 -.02043080  00000+0 -10132+1 0  9990
2 69854  89.0057  60.9028 0028571 224.6226 135.2665 14.21176210  1436
QIANFAN-226             
1 69855U 26155H   26196.64332639 -.01954139  00000+0 -94248+0 0  9991
2 69855  89.0073  60.8921 0025329 219.4211 140.5138 14.22513031  1442
QIANFAN-227             
1 69856U 26155J   26196.64210867 -.01749557  00000+0 -85402+0 0  9998
2 69856  89.0074  60.8892 0029175 222.0545 137.8407 14.22033823  1448
QIANFAN-228             
1 69857U 26155K   26196.78411050 -.00000016  00000+0 -12514-4 0  9999
2 69857  89.0066  60.8793 0030440 221.5576 138.3304 14.26683592  1467
QIANFAN-229             
1 69858U 26155L   26196.57166205 -.01800091  00000+0 -85377+0 0  9990
2 69858  89.0061  60.9031 0028805 217.3632 142.5558 14.23030071  1437
QIANFAN-230             
1 69859U 26155M   26196.64860844 -.01652391  00000+0 -82916+0 0  9993
2 69859  89.0059  60.8958 0028506 226.8287 133.0521 14.20346445  1449
QIANFAN-231             
1 69860U 26155N   26196.85685657  .00000235  00000+0  92081-4 0  9995
2 69860  89.0066  60.8718 0030541 220.3966 139.4960 14.26095869  1475
QIANFAN-232             
1 69861U 26155P   26196.71218407 -.01811233  00000+0 -87071+0 0  9995
2 69861  89.0059  60.8871 0028257 220.5706 139.3380 14.22350983  1453
QIANFAN-233             
1 69862U 26155Q   26196.57349647  .00000236  00000+0  91194-4 0  9997
2 69862  89.0066  60.9032 0030297 222.4538 137.4312 14.26751552  1436
QIANFAN-234             
1 69863U 26155R   26196.71209601 -.01817563  00000+0 -87478+0 0  9996
2 69863  89.0061  60.8873 0028064 220.1417 139.7702 14.22304616  1455
QIANFAN-235             
1 69864U 26155S   26196.78249640 -.01766384  00000+0 -87262+0 0  9996
2 69864  89.0061  60.8792 0029657 225.2918 134.5858 14.21432781  1467
QIANFAN-236             
1 69865U 26155T   26196.57337455  .00000242  00000+0  93596-4 0  9999
2 69865  89.0066  60.9032 0030182 222.5620 137.3235 14.26769160  1432
QIANFAN-237             
1 69866U 26155U   26196.78206235 -.01813376  00000+0 -87173+0 0  9996
2 69866  89.0061  60.8792 0027859 221.5291 138.3785 14.22361931  1453
