OBJECT_NAME,OBJECT_ID,EPOCH,MEAN_MOTION,ECCENTRICITY,INCLINATION,RA_OF_ASC_NODE,ARG_OF_PERICENTER,MEAN_ANOMALY,EPHEMERIS_TYPE,CLASSIFICATION_TYPE,NORAD_CAT_ID,ELEMENT_SET_NO,REV_AT_EPOCH,BSTAR,MEAN_MOTION_DOT,MEAN_MOTION_DDOT
STARLINK-37587,2026-154U,2026-07-15T20:00:01.999008,15.83810902,.0001259,53.1586,289.6046,64.0704,44.7092,0,U,69837,999,274,-.9219E-2,-.1835362E-1,0
STARLINK-37590,2026-154V,2026-07-15T20:00:01.999008,15.83934591,.0001346,53.1584,289.5962,62.4728,50.2380,0,U,69838,999,261,-.91673E-2,-.1835984E-1,0
STARLINK-37589,2026-154W,2026-07-15T20:00:01.999008,15.84040767,.0001021,53.1589,289.5877,70.1596,46.5359,0,U,69839,999,274,-.91392E-2,-.1838986E-1,0
STARLINK-37487,2026-154X,2026-07-15T20:00:01.999008,15.92331116,.0000748,53.1569,289.2358,68.5092,216.8488,0,U,69840,999,274,-.5053E-2,-.173702E-1,.84039E-3
STARLINK-37433,2026-154Y,2026-07-15T20:00:01.999008,15.93003556,.0000798,53.1569,289.2204,57.2730,235.4382,0,U,69841,999,287,-.66948E-2,-.2374372E-1,.15209E-2
STARLINK-37588,2026-154Z,2026-07-15T20:00:01.999008,15.92211157,.0000664,53.1568,289.2092,66.4968,231.5901,0,U,69842,999,277,-.52015E-2,-.1776402E-1,.87484E-3
STARLINK-37579,2026-154AA,2026-07-15T20:00:01.999008,15.92063512,.0000754,53.1567,289.1913,56.4758,250.0789,0,U,69843,999,277,-.54499E-2,-.1846068E-1,.93797E-3
STARLINK-37584,2026-154AB,2026-07-15T20:00:01.999008,15.92047527,.0000754,53.1569,289.1798,62.0111,249.9652,0,U,69844,999,277,-.55113E-2,-.1865051E-1,.95577E-3
STARLINK-37606,2026-154AC,2026-07-15T20:00:01.999008,15.91986908,.0000798,53.1565,289.1663,62.2252,256.1185,0,U,69845,999,277,-.56118E-2,-.1892723E-1,.98165E-3
STARLINK-37603,2026-154AD,2026-07-15T20:00:01.999008,15.91877057,.0000876,53.1567,289.1505,67.3892,258.4152,0,U,69846,999,277,-.57917E-2,-.1941656E-1,.10282E-2
STARLINK-37595,2026-154AE,2026-07-15T20:00:01.999008,15.91857464,.0000743,53.1563,289.1389,60.8918,270.3035,0,U,69847,999,277,-.5835E-2,-.1953986E-1,.10402E-2
QIANFAN-219,2026-155A,2026-07-15T18:48:48.007008,14.20138558,.002845,89.0062,60.8794,230.0128,129.8564,0,U,69848,999,146,-.75112E+0,-.1501209E-1,0
QIANFAN-220,2026-155B,2026-07-15T13:55:30.816192,14.17198263,.0035903,89.0059,60.9044,226.8697,132.9488,0,U,69849,999,143,-.10051E+1,-.1896186E-1,0
QIANFAN-221,2026-155C,2026-07-15T18:47:06.165600,14.21794849,.0028776,89.0061,60.8793,223.8123,136.0785,0,U,69850,999,146,-.83588E+0,-.1707725E-1,0
QIANFAN-222,2026-155D,2026-07-15T18:59:48.634368,14.22184579,.0029342,89.0066,60.8804,221.6968,138.1987,0,U,69851,999,146,.50634E-4,.127E-5,0
QIANFAN-223,2026-155E,2026-07-15T18:55:15.129984,14.18697234,.0032872,89.0056,60.8800,229.1788,130.6550,0,U,69852,999,146,-.10354E+1,-.199905E-1,0
QIANFAN-224,2026-155F,2026-07-15T18:55:10.136064,14.23567919,.0029962,89.0059,60.8792,221.2043,138.6888,0,U,69853,999,146,.77109E-4,.191E-5,0
QIANFAN-225,2026-155G,2026-07-15T13:46:58.200672,14.21176210,.0028571,89.0057,60.9028,224.6226,135.2665,0,U,69854,999,143,-.10132E+1,-.204308E-1,0
QIANFAN-226,2026-155H,2026-07-15T15:26:23.400096,14.22513031,.0025329,89.0073,60.8921,219.4211,140.5138,0,U,69855,999,144,-.94248E+0,-.1954139E-1,0
QIANFAN-227,2026-155J,2026-07-15T15:24:38.189088,14.22033823,.0029175,89.0074,60.8892,222.0545,137.8407,0,U,69856,999,144,-.85402E+0,-.1749557E-1,0
QIANFAN-228,2026-155K,2026-07-15T18:49:07.147200,14.26683592,.003044,89.0066,60.8793,221.5576,138.3304,0,U,69857,999,146,-.12514E-4,-.16E-6,0
QIANFAN-229,2026-155L,2026-07-15T13:43:11.601120,14.23030071,.0028805,89.0061,60.9031,217.3632,142.5558,0,U,69858,999,143,-.85377E+0,-.1800091E-1,0
QIANFAN-230,2026-155M,2026-07-15T15:33:59.769216,14.20346445,.0028506,89.0059,60.8958,226.8287,133.0521,0,U,69859,999,144,-.82916E+0,-.1652391E-1,0
QIANFAN-231,2026-155N,2026-07-15T20:33:52.407648,14.26095869,.0030541,89.0066,60.8718,220.3966,139.4960,0,U,69860,999,147,.92081E-4,.235E-5,0
QIANFAN-232,2026-155P,2026-07-15T17:05:32.703648,14.22350983,.0028257,89.0059,60.8871,220.5706,139.3380,0,U,69861,999,145,-.87071E+0,-.1811233E-1,0
QIANFAN-233,2026-155Q,2026-07-15T13:45:50.095008,14.26751552,.0030297,89.0066,60.9032,222.4538,137.4312,0,U,69862,999,143,.91194E-4,.236E-5,0
QIANFAN-234,2026-155R,2026-07-15T17:05:25.095264,14.22304616,.0028064,89.0061,60.8873,220.1417,139.7702,0,U,69863,999,145,-.87478E+0,-.1817563E-1,0
QIANFAN-235,2026-155S,2026-07-15T18:46:47.688960,14.21432781,.0029657,89.0061,60.8792,225.2918,134.5858,0,U,69864,999,146,-.87262E+0,-.1766384E-1,0
QIANFAN-236,2026-155T,2026-07-15T13:45:39.561120,14.26769160,.0030182,89.0066,60.9032,222.5620,137.3235,0,U,69865,999,143,.93596E-4,.242E-5,0
QIANFAN-237,2026-155U,2026-07-15T18:46:10.187040,14.22361931,.0027859,89.0061,60.8792,221.5291,138.3785,0,U,69866,999,145,-.87173E+0,-.1813376E-1,0
